NORAD_CAT_ID,OBJECT_NAME,OBJECT_TYPE,EPOCH,MEAN_MOTION,ECCENTRICITY,INCLINATION,RA_OF_ASC_NODE,ARG_OF_PERICENTER,MEAN_ANOMALY,BSTAR,MEAN_MOTION_DOT,MEAN_MOTION_DDOT,TLE_LINE0,TLE_LINE1,TLE_LINE2,SEMIMAJOR_AXIS,PERIOD,APOGEE,PERIGEE,DECAYED
56780.0,STARLINK-5963,PAYLOAD,2023-09-08 12:00:00,15.51333794,0.0003252,69.9986,131.872,260.991,338.6316,-0.0041372,-0.00236985,0.0,0 STARLINK-5963,1 56780U 23078P   23251.50001157 -.00236985  00000-0 -41372-2 0  9992,2 56780  69.9986 131.8720 0003252 260.9910 338.6316 15.51333794 16037,6790.968,92.823,415.041,410.624,0.0
56780.0,STARLINK-5963,PAYLOAD,2023-09-08 14:00:01,15.51185896,0.0003225,69.9985,131.6442,257.8311,87.0804,-0.00013722,-8.205e-05,0.0,0 STARLINK-5963,1 56780U 23078P   23251.58334491 -.00008205  00000-0 -13722-3 0  9991,2 56780  69.9985 131.6442 0003225 257.8311  87.0804 15.51185896  5825,6791.399,92.832,415.455,411.074,0.0
56780.0,STARLINK-5963,PAYLOAD,2023-09-08 20:00:01,15.51187243,0.0003156,69.9988,130.9605,260.2828,40.2735,8.5808e-06,3.39e-06,0.0,0 STARLINK-5963,1 56780U 23078P   23251.83334491  .00000339  00000-0  85808-5 0  9993,2 56780  69.9988 130.9605 0003156 260.2828  40.2735 15.51187243 16087,6791.396,92.832,415.404,411.117,0.0
56780.0,STARLINK-5963,PAYLOAD,2023-09-08 22:00:00,15.51180728,0.0003112,69.9987,130.7329,261.983,143.7922,0.0003023,0.00017604,0.0,0 STARLINK-5963,1 56780U 23078P   23251.91667824  .00017604  00000-0  30230-3 0  9991,2 56780  69.9987 130.7329 0003112 261.9830 143.7922 15.51180728  5873,6791.415,92.833,415.393,411.166,0.0
56780.0,STARLINK-5963,PAYLOAD,2023-09-09 12:00:00,15.51174653,0.0003066,69.9991,129.1382,257.6992,164.6286,0.0016422,0.00097316,0.0,0 STARLINK-5963,1 56780U 23078P   23252.50001157  .00097316  00000-0  16422-2 0  9992,2 56780  69.9991 129.1382 0003066 257.6992 164.6286 15.51174653 16189,6791.432,92.833,415.38,411.215,0.0
56780.0,STARLINK-5963,PAYLOAD,2023-09-09 14:00:01,15.51195167,0.0003058,69.9991,128.9105,256.8326,270.7114,0.0013318,0.00078762,0.0,0 STARLINK-5963,1 56780U 23078P   23252.58334491  .00078762  00000-0  13318-2 0  9995,2 56780  69.9991 128.9105 0003058 256.8326 270.7114 15.51195167  5980,6791.372,92.832,415.314,411.161,0.0
56780.0,STARLINK-5963,PAYLOAD,2023-09-10 04:00:00,15.51255633,0.0003056,69.9987,127.3155,265.1171,279.05,0.00042608,0.00024969,0.0,0 STARLINK-5963,1 56780U 23078P   23253.16667824  .00024969  00000-0  42608-3 0  9994,2 56780  69.9987 127.3155 0003056 265.1171 279.0500 15.51255633 16283,6791.196,92.828,415.136,410.986,0.0
56780.0,STARLINK-5963,PAYLOAD,2023-09-10 12:00:00,15.51245633,0.0003127,69.999,126.404,260.4632,344.6727,-0.00012153,-7.302e-05,0.0,0 STARLINK-5963,1 56780U 23078P   23253.50001157 -.00007302  00000-0 -12153-3 0  9999,2 56780  69.9990 126.4040 0003127 260.4632 344.6727 15.51245633 16345,6791.225,92.829,415.214,410.966,0.0
56780.0,STARLINK-5963,PAYLOAD,2023-09-10 14:00:01,15.51238479,0.0003113,69.9989,126.1762,259.9249,90.4487,-6.3161e-06,-5.36e-06,0.0,0 STARLINK-5963,1 56780U 23078P   23253.58334491 -.00000536  00000-0 -63161-5 0  9996,2 56780  69.9989 126.1762 0003113 259.9249  90.4487 15.51238479  6026,6791.246,92.829,415.225,410.997,0.0
56780.0,STARLINK-5963,PAYLOAD,2023-09-11 12:00:02,15.51188877,0.0003142,69.9989,123.6697,263.9447,164.0371,0.0012955,0.00076573,0.0,0 STARLINK-5963,1 56780U 23078P   23254.50002315  .00076573  00000-0  12955-2 0  9990,2 56780  69.9989 123.6697 0003142 263.9447 164.0371 15.51188877 16490,6791.391,92.832,415.39,411.122,0.0
56780.0,STARLINK-5963,PAYLOAD,2023-09-11 14:00:01,15.51214456,0.0003114,69.999,123.4421,263.4326,269.7019,0.00067693,0.00039783,0.0,0 STARLINK-5963,1 56780U 23078P   23254.58334491  .00039783  00000-0  67693-3 0  9993,2 56780  69.9990 123.4421 0003114 263.4326 269.7019 15.51214456  5971,6791.316,92.83,415.296,411.066,0.0
56780.0,STARLINK-5963,PAYLOAD,2023-09-11 20:00:01,15.51251923,0.0003169,69.9989,122.7584,268.7987,220.0242,-0.00098672,-0.00057759,0.0,0 STARLINK-5963,1 56780U 23078P   23254.83334491 -.00057759  00000-0 -98672-3 0  9997,2 56780  69.9989 122.7584 0003169 268.7987 220.0242 15.51251923 16545,6791.207,92.828,415.224,410.92,0.0
56780.0,STARLINK-5963,PAYLOAD,2023-09-12 01:38:14,15.51233764,0.0002854,69.9972,122.116,261.6292,98.4571,1.8432e-05,9.18e-06,0.0,0 STARLINK-5963,1 56780U 23078P   23255.06822426  .00000918  00000-0  18432-4 0  9993,2 56780  69.9972 122.1160 0002854 261.6292  98.4571 15.51233764 16581,6791.26,92.829,415.063,411.187,0.0
56780.0,STARLINK-5963,PAYLOAD,2023-09-12 18:39:40,15.51203559,0.0002614,69.9972,120.1767,262.4421,97.6468,0.00011676,6.694e-05,0.0,0 STARLINK-5963,1 56780U 23078P   23255.77755604  .00006694  00000-0  11676-3 0  9993,2 56780  69.9972 120.1767 0002614 262.4421  97.6468 15.51203559 16438,6791.348,92.831,414.988,411.438,0.0
56780.0,STARLINK-5963,PAYLOAD,2023-09-13 02:23:56,15.51246928,0.0002951,69.9971,119.2951,262.5775,97.5076,-3.4079e-05,-2.168e-05,0.0,0 STARLINK-5963,1 56780U 23078P   23256.09996378 -.00002168  00000-0 -34079-4 0  9991,2 56780  69.9971 119.2951 0002951 262.5775  97.5076 15.51246928 16743,6791.221,92.829,415.09,411.082,0.0
56780.0,STARLINK-5963,PAYLOAD,2023-09-13 17:52:32,15.51224132,0.0002878,69.9974,117.5328,262.8915,97.1944,-8.482e-07,-2.15e-06,0.0,0 STARLINK-5963,1 56780U 23078P   23256.74482028 -.00000215  00000-0 -84820-6 0  9997,2 56780  69.9974 117.5328 0002878 262.8915  97.1944 15.51224132 16846,6791.288,92.83,415.107,411.198,0.0
56780.0,STARLINK-5963,PAYLOAD,2023-09-13 20:58:15,15.51224627,0.0002805,69.9972,117.179,267.2275,92.859,-1.4438e-06,-2.49e-06,0.0,0 STARLINK-5963,1 56780U 23078P   23256.87378932 -.00000249  00000-0 -14438-5 0  9993,2 56780  69.9972 117.1790 0002805 267.2275  92.8590 15.51224627 16603,6791.286,92.83,415.056,411.246,0.0
56780.0,STARLINK-5963,PAYLOAD,2023-09-14 00:03:58,15.51218865,0.0002864,69.9972,116.8266,266.1736,93.9122,-9.0365e-06,-6.95e-06,0.0,0 STARLINK-5963,1 56780U 23078P   23257.00276251 -.00000695  00000-0 -90365-5 0  9998,2 56780  69.9972 116.8266 0002864 266.1736  93.9122 15.51218865 16882,6791.303,92.83,415.113,411.223,0.0
56780.0,STARLINK-5963,PAYLOAD,2023-09-14 13:59:41,15.51225632,0.0003142,69.9965,115.239,267.444,92.6387,1.3141e-05,6.07e-06,0.0,0 STARLINK-5963,1 56780U 23078P   23257.58311604  .00000607  00000-0  13141-4 0  9990,2 56780  69.9965 115.2390 0003142 267.4440  92.6387 15.51225632 16712,6791.283,92.83,415.282,411.015,0.0
56780.0,STARLINK-5963,PAYLOAD,2023-09-14 18:38:15,15.5122889,0.0003123,69.9968,114.7102,267.6359,92.447,1.6673e-05,8.15e-06,0.0,0 STARLINK-5963,1 56780U 23078P   23257.77656681  .00000815  00000-0  16673-4 0  9992,2 56780  69.9968 114.7102 0003123 267.6359  92.4470 15.51228890 17003,6791.274,92.83,415.26,411.018,0.0
56780.0,STARLINK-5963,PAYLOAD,2023-09-15 00:49:40,15.51240439,0.0003086,69.997,114.0052,268.6002,91.4831,-2.3352e-05,-1.537e-05,0.0,0 STARLINK-5963,1 56780U 23078P   23258.03450016 -.00001537  00000-0 -23352-4 0  9992,2 56780  69.9970 114.0052 0003086 268.6002  91.4831 15.51240439 17044,6791.24,92.829,415.201,411.009,0.0
56780.0,STARLINK-5963,PAYLOAD,2023-09-15 17:51:07,15.51219953,0.0003104,69.9967,112.0653,261.7609,98.3225,2.5585e-05,1.338e-05,0.0,0 STARLINK-5963,1 56780U 23078P   23258.74383554  .00001338  00000-0  25585-4 0  9999,2 56780  69.9967 112.0653 0003104 261.7609  98.3225 15.51219953 17155,6791.3,92.83,415.273,411.057,0.0
56780.0,STARLINK-5963,PAYLOAD,2023-09-16 00:02:33,15.51211737,0.000318,69.9974,111.3606,266.7321,93.3501,1.1462e-05,5.08e-06,0.0,0 STARLINK-5963,1 56780U 23078P   23259.00178154  .00000508  00000-0  11462-4 0  9994,2 56780  69.9974 111.3606 0003180 266.7321  93.3501 15.51211737 17191,6791.324,92.831,415.349,411.029,0.0
56780.0,STARLINK-5963,PAYLOAD,2023-09-16 01:35:25,15.5121394,0.0003079,69.9975,111.1841,263.7709,96.3126,1.7911e-05,8.87e-06,0.0,0 STARLINK-5963,1 56780U 23078P   23259.06626426  .00000887  00000-0  17911-4 0  9995,2 56780  69.9975 111.1841 0003079 263.7709  96.3126 15.51213940 16941,6791.318,92.831,415.274,411.092,0.0
56780.0,STARLINK-5963,PAYLOAD,2023-09-16 17:03:58,15.51230865,0.0003682,69.9965,109.4207,270.7207,89.3558,1.2401e-05,5.64e-06,0.0,0 STARLINK-5963,1 56780U 23078P   23259.71109765  .00000564  00000-0  12401-4 0  9990,2 56780  69.9965 109.4207 0003682 270.7207  89.3558 15.51230865 17304,6791.268,92.83,415.634,410.633,0.0
56780.0,STARLINK-5963,PAYLOAD,2023-09-16 23:15:24,15.51228334,0.0003493,69.9973,108.7168,273.5619,86.5168,9.3408e-06,3.84e-06,0.0,0 STARLINK-5963,1 56780U 23078P   23259.96903771  .00000384  00000-0  93408-5 0  9993,2 56780  69.9973 108.7168 0003493 273.5619  86.5168 15.51228334 17088,6791.276,92.83,415.513,410.768,0.0
56780.0,STARLINK-5963,PAYLOAD,2023-09-17 17:50:32,15.50620885,0.0003787,69.9974,106.6011,276.2022,83.8732,-0.001278,-0.00072975,0.0,0 STARLINK-5963,1 56780U 23078P   23260.74343423 -.00072975  00000-0 -12780-2 0  9991,2 56780  69.9974 106.6011 0003787 276.2022  83.8732 15.50620885 17462,6793.049,92.866,417.487,412.342,0.0
56780.0,STARLINK-5963,PAYLOAD,2023-09-18 00:02:30,15.50291575,0.0003357,69.9974,105.8972,280.0858,79.9949,-0.0019632,-0.00110191,0.0,0 STARLINK-5963,1 56780U 23078P   23261.00173932 -.00110191  00000-0 -19632-2 0  9993,2 56780  69.9974 105.8972 0003357 280.0858  79.9949 15.50291575 17503,6794.011,92.886,418.157,413.595,0.0
56780.0,STARLINK-5963,PAYLOAD,2023-09-18 12:00:00,15.48549245,0.0003377,69.999,104.5372,268.1172,352.4967,-0.017715,-0.0086348,0.0,0 STARLINK-5963,1 56780U 23078P   23261.50001157 -.00863480  00000-0 -17715-1 0  9992,2 56780  69.9990 104.5372 0003377 268.1172 352.4967 15.48549245 17583,6799.106,92.99,423.267,418.675,0.0
56780.0,STARLINK-5963,PAYLOAD,2023-09-18 14:00:01,15.48418409,0.0003494,69.9993,104.3104,269.8116,95.1971,-0.018842,-0.00922192,0.0,0 STARLINK-5963,1 56780U 23078P   23261.58334491 -.00922192  00000-0 -18842-1 0  9998,2 56780  69.9993 104.3104 0003494 269.8116  95.1971 15.48418409  6012,6799.489,92.998,423.73,418.978,0.0
